{
  "type": "FeatureCollection",
  "features": [
    {
      "type": "Feature",
      "properties": {
        "norad_id": 40938,
        "name": "BEIDOU-3S IGSO-2S (C56)",
        "group": "gnss",
        "lat": -44.13287657631959,
        "lon": 136.74064459642716,
        "alt_km": 35654.221305374966,
        "timestamp": "2025-12-18T21:31:51.242742+00:00",
        "meta_object_name": "BEIDOU-3S IGSO-2S (C56)",
        "meta_object_id": "2015-053A",
        "meta_epoch": "2025-12-17T17:12:22.751136",
        "meta_mean_motion": 1.00269192,
        "meta_eccentricity": 0.00604784,
        "meta_inclination": 49.5029,
        "meta_ra_of_asc_node": 260.9465,
        "meta_arg_of_pericenter": 188.653,
        "meta_mean_anomaly": 351.012,
        "meta_ephemeris_type": 0,
        "meta_classification_type": "U",
        "meta_norad_cat_id": 40938,
        "meta_element_set_no": 999,
        "meta_rev_at_epoch": 3753,
        "meta_bstar": 0,
        "meta_mean_motion_dot": -1.26e-06,
        "meta_mean_motion_ddot": 0,
        "tle_line1": "1 40938U 15053A   25351.71692999 -.00000126  00000+0  00000+0 0  9994",
        "tle_line2": "2 40938  49.5029 260.9465 0060478 188.6530 351.0120  1.00269192 37533"
      },
      "geometry": {
        "type": "Point",
        "coordinates": [
          136.74064459642716,
          -44.13287657631959
        ]
      }
    },
    {
      "type": "Feature",
      "properties": {
        "norad_id": 41019,
        "name": "GPS BIIF-11 (PRN 10)",
        "group": "gnss",
        "lat": 53.512332466313836,
        "lon": 99.84134870930102,
        "alt_km": 20445.633470542623,
        "timestamp": "2025-12-18T21:31:51.242770+00:00",
        "meta_object_name": "GPS BIIF-11 (PRN 10)",
        "meta_object_id": "2015-062A",
        "meta_epoch": "2025-12-18T07:03:43.994016",
        "meta_mean_motion": 2.0056722,
        "meta_eccentricity": 0.01109639,
        "meta_inclination": 56.8362,
        "meta_ra_of_asc_node": 37.7874,
        "meta_arg_of_pericenter": 230.0873,
        "meta_mean_anomaly": 128.9937,
        "meta_ephemeris_type": 0,
        "meta_classification_type": "U",
        "meta_norad_cat_id": 41019,
        "meta_element_set_no": 999,
        "meta_rev_at_epoch": 7420,
        "meta_bstar": 0,
        "meta_mean_motion_dot": -6.9e-07,
        "meta_mean_motion_ddot": 0,
        "tle_line1": "1 41019U 15062A   25352.29425919 -.00000069  00000+0  00000+0 0  9991",
        "tle_line2": "2 41019  56.8362  37.7874 0110963 230.0873 128.9937  2.00567220 74202"
      },
      "geometry": {
        "type": "Point",
        "coordinates": [
          99.84134870930102,
          53.512332466313836
        ]
      }
    },
    {
      "type": "Feature",
      "properties": {
        "norad_id": 41028,
        "name": "GSAT-15 (GAGAN/PRN 139)",
        "group": "gnss",
        "lat": -0.014805482367041744,
        "lon": 144.16774144546318,
        "alt_km": 35785.91201375119,
        "timestamp": "2025-12-18T21:31:51.242783+00:00",
        "meta_object_name": "GSAT-15 (GAGAN/PRN 139)",
        "meta_object_id": "2015-065A",
        "meta_epoch": "2025-12-18T04:57:38.619072",
        "meta_mean_motion": 1.00271315,
        "meta_eccentricity": 0.00025381,
        "meta_inclination": 0.0343,
        "meta_ra_of_asc_node": 269.6856,
        "meta_arg_of_pericenter": 322.2138,
        "meta_mean_anomaly": 23.0771,
        "meta_ephemeris_type": 0,
        "meta_classification_type": "U",
        "meta_norad_cat_id": 41028,
        "meta_element_set_no": 999,
        "meta_rev_at_epoch": 3698,
        "meta_bstar": 0,
        "meta_mean_motion_dot": -2.33e-06,
        "meta_mean_motion_ddot": 0,
        "tle_line1": "1 41028U 15065A   25352.20669698 -.00000233  00000+0  00000+0 0  9992",
        "tle_line2": "2 41028   0.0343 269.6856 0002538 322.2138  23.0771  1.00271315 36984"
      },
      "geometry": {
        "type": "Point",
        "coordinates": [
          144.16774144546318,
          -0.014805482367041744
        ]
      }
    },
    {
      "type": "Feature",
      "properties": {
        "norad_id": 41174,
        "name": "GSAT0209 (GALILEO 12)",
        "group": "gnss",
        "lat": -29.897556643470672,
        "lon": 83.13922704444163,
        "alt_km": 23219.262224553615,
        "timestamp": "2025-12-18T21:31:51.242795+00:00",
        "meta_object_name": "GSAT0209 (GALILEO 12)",
        "meta_object_id": "2015-079A",
        "meta_epoch": "2025-12-17T18:49:30.009504",
        "meta_mean_motion": 1.70474581,
        "meta_eccentricity": 0.00024688,
        "meta_inclination": 55.7156,
        "meta_ra_of_asc_node": 106.2426,
        "meta_arg_of_pericenter": 347.1145,
        "meta_mean_anomaly": 12.8381,
        "meta_ephemeris_type": 0,
        "meta_classification_type": "U",
        "meta_norad_cat_id": 41174,
        "meta_element_set_no": 999,
        "meta_rev_at_epoch": 6168,
        "meta_bstar": 0,
        "meta_mean_motion_dot": -9e-08,
        "meta_mean_motion_ddot": 0,
        "tle_line1": "1 41174U 15079A   25351.78437511 -.00000009  00000+0  00000+0 0  9999",
        "tle_line2": "2 41174  55.7156 106.2426 0002468 347.1145  12.8381  1.70474581 61685"
      },
      "geometry": {
        "type": "Point",
        "coordinates": [
          83.13922704444163,
          -29.897556643470672
        ]
      }
    },
    {
      "type": "Feature",
      "properties": {
        "norad_id": 41175,
        "name": "GSAT0208 (GALILEO 11)",
        "group": "gnss",
        "lat": -6.469649374830445,
        "lon": -69.36898235714314,
        "alt_km": 23229.038732510217,
        "timestamp": "2025-12-18T21:31:51.242806+00:00",
        "meta_object_name": "GSAT0208 (GALILEO 11)",
        "meta_object_id": "2015-079B",
        "meta_epoch": "2025-12-17T10:01:51.548736",
        "meta_mean_motion": 1.70474378,
        "meta_eccentricity": 0.00019999,
        "meta_inclination": 55.7141,
        "meta_ra_of_asc_node": 106.2497,
        "meta_arg_of_pericenter": 355.3127,
        "meta_mean_anomaly": 4.6444,
        "meta_ephemeris_type": 0,
        "meta_classification_type": "U",
        "meta_norad_cat_id": 41175,
        "meta_element_set_no": 999,
        "meta_rev_at_epoch": 6209,
        "meta_bstar": 0,
        "meta_mean_motion_dot": -9e-08,
        "meta_mean_motion_ddot": 0,
        "tle_line1": "1 41175U 15079B   25351.41795774 -.00000009  00000+0  00000+0 0  9998",
        "tle_line2": "2 41175  55.7141 106.2497 0001999 355.3127   4.6444  1.70474378 62096"
      },
      "geometry": {
        "type": "Point",
        "coordinates": [
          -69.36898235714314,
          -6.469649374830445
        ]
      }
    },
    {
      "type": "Feature",
      "properties": {
        "norad_id": 41241,
        "name": "IRNSS-1E",
        "group": "gnss",
        "lat": 32.32275198505051,
        "lon": 164.08101757902782,
        "alt_km": 35779.95458898576,
        "timestamp": "2025-12-18T21:31:51.242817+00:00",
        "meta_object_name": "IRNSS-1E",
        "meta_object_id": "2016-003A",
        "meta_epoch": "2025-12-17T16:32:48.379776",
        "meta_mean_motion": 1.00271769,
        "meta_eccentricity": 0.00216842,
        "meta_inclination": 32.8362,
        "meta_ra_of_asc_node": 62.381,
        "meta_arg_of_pericenter": 188.2818,
        "meta_mean_anomaly": 195.8729,
        "meta_ephemeris_type": 0,
        "meta_classification_type": "U",
        "meta_norad_cat_id": 41241,
        "meta_element_set_no": 999,
        "meta_rev_at_epoch": 3626,
        "meta_bstar": 0,
        "meta_mean_motion_dot": -3.06e-06,
        "meta_mean_motion_ddot": 0,
        "tle_line1": "1 41241U 16003A   25351.68944884 -.00000306  00000+0  00000+0 0  9997",
        "tle_line2": "2 41241  32.8362  62.3810 0021684 188.2818 195.8729  1.00271769 36266"
      },
      "geometry": {
        "type": "Point",
        "coordinates": [
          164.08101757902782,
          32.32275198505051
        ]
      }
    },
    {
      "type": "Feature",
      "properties": {
        "norad_id": 41328,
        "name": "GPS BIIF-12 (PRN 32)",
        "group": "gnss",
        "lat": 12.68684119806946,
        "lon": 105.53393772543035,
        "alt_km": 20343.52935023248,
        "timestamp": "2025-12-18T21:31:51.242829+00:00",
        "meta_object_name": "GPS BIIF-12 (PRN 32)",
        "meta_object_id": "2016-007A",
        "meta_epoch": "2025-12-17T21:04:45.121728",
        "meta_mean_motion": 2.00560498,
        "meta_eccentricity": 0.0092429,
        "meta_inclination": 55.409,
        "meta_ra_of_asc_node": 96.6531,
        "meta_arg_of_pericenter": 243.6958,
        "meta_mean_anomaly": 115.3363,
        "meta_ephemeris_type": 0,
        "meta_classification_type": "U",
        "meta_norad_cat_id": 41328,
        "meta_element_set_no": 999,
        "meta_rev_at_epoch": 7220,
        "meta_bstar": 0,
        "meta_mean_motion_dot": -3.7e-07,
        "meta_mean_motion_ddot": 0,
        "tle_line1": "1 41328U 16007A   25351.87830002 -.00000037  00000+0  00000+0 0  9995",
        "tle_line2": "2 41328  55.4090  96.6531 0092429 243.6958 115.3363  2.00560498 72203"
      },
      "geometry": {
        "type": "Point",
        "coordinates": [
          105.53393772543035,
          12.68684119806946
        ]
      }
    }
  ]
}